{
  "links" : {
    "next" : "https://api.nasa.gov/neo/rest/v1/feed?start_date=2010-03-23&end_date=2010-03-23&detailed=true&api_key=t0TVs3DtDT2H8Oy2Zy8m2eVrNsAVKAexjcZXUckd",
    "prev" : "https://api.nasa.gov/neo/rest/v1/feed?start_date=2010-03-21&end_date=2010-03-21&detailed=true&api_key=t0TVs3DtDT2H8Oy2Zy8m2eVrNsAVKAexjcZXUckd",
    "self" : "https://api.nasa.gov/neo/rest/v1/feed?start_date=2010-03-22&end_date=2010-03-22&detailed=true&api_key=t0TVs3DtDT2H8Oy2Zy8m2eVrNsAVKAexjcZXUckd"
  },
  "element_count" : 8,
  "near_earth_objects" : {
    "2010-03-22" : [ {
      "links" : {
        "self" : "https://api.nasa.gov/neo/rest/v1/neo/3467048?api_key=t0TVs3DtDT2H8Oy2Zy8m2eVrNsAVKAexjcZXUckd"
      },
      "neo_reference_id" : "3467048",
      "name" : "(2009 RH)",
      "nasa_jpl_url" : "http://ssd.jpl.nasa.gov/sbdb.cgi?sstr=3467048",
      "absolute_magnitude_h" : 23.8,
      "estimated_diameter" : {
        "kilometers" : {
          "estimated_diameter_min" : 0.046190746,
          "estimated_diameter_max" : 0.1032856481
        },
        "meters" : {
          "estimated_diameter_min" : 46.1907460282,
          "estimated_diameter_max" : 103.2856480504
        },
        "miles" : {
          "estimated_diameter_min" : 0.0287015901,
          "estimated_diameter_max" : 0.0641787064
        },
        "feet" : {
          "estimated_diameter_min" : 151.544447199,
          "estimated_diameter_max" : 338.8636855496
        }
      },
      "is_potentially_hazardous_asteroid" : false,
      "close_approach_data" : [ {
        "close_approach_date" : "2010-03-22",
        "epoch_date_close_approach" : 1269241200000,
        "relative_velocity" : {
          "kilometers_per_second" : "6.4818266774",
          "kilometers_per_hour" : "23334.5760386983",
          "miles_per_hour" : "14499.1980947123"
        },
        "miss_distance" : {
          "astronomical" : "0.3854188526",
          "lunar" : "149.9279327393",
          "kilometers" : "57657840",
          "miles" : "35826920"
        },
        "orbiting_body" : "Earth"
      } ],
      "orbital_data" : {
        "orbit_id" : "13",
        "orbit_determination_date" : "2017-04-06 09:00:08",
        "orbit_uncertainty" : "8",
        "minimum_orbit_intersection" : ".0197548",
        "jupiter_tisserand_invariant" : "5.106",
        "epoch_osculation" : "2455090.5",
        "eccentricity" : ".306165836000618",
        "semi_major_axis" : "1.245993075667086",
        "inclination" : "3.569146796639562",
        "ascending_node_longitude" : "165.946960878647",
        "orbital_period" : "508.0095424188131",
        "perihelion_distance" : ".8645125640044911",
        "perihelion_argument" : "264.5507415124419",
        "aphelion_distance" : "1.62747358732968",
        "perihelion_time" : "2455156.014718411698",
        "mean_anomaly" : "313.5731188908119",
        "mean_motion" : ".7086481058720131",
        "equinox" : "J2000"
      }
    }, {
      "links" : {
        "self" : "https://api.nasa.gov/neo/rest/v1/neo/3511916?api_key=t0TVs3DtDT2H8Oy2Zy8m2eVrNsAVKAexjcZXUckd"
      },
      "neo_reference_id" : "3511916",
      "name" : "(2010 FD)",
      "nasa_jpl_url" : "http://ssd.jpl.nasa.gov/sbdb.cgi?sstr=3511916",
      "absolute_magnitude_h" : 26.0,
      "estimated_diameter" : {
        "kilometers" : {
          "estimated_diameter_min" : 0.0167708462,
          "estimated_diameter_max" : 0.0375007522
        },
        "meters" : {
          "estimated_diameter_min" : 16.7708462163,
          "estimated_diameter_max" : 37.5007521798
        },
        "miles" : {
          "estimated_diameter_min" : 0.0104209175,
          "estimated_diameter_max" : 0.0233018799
        },
        "feet" : {
          "estimated_diameter_min" : 55.0224631002,
          "estimated_diameter_max" : 123.0339677816
        }
      },
      "is_potentially_hazardous_asteroid" : false,
      "close_approach_data" : [ {
        "close_approach_date" : "2010-03-22",
        "epoch_date_close_approach" : 1269241200000,
        "relative_velocity" : {
          "kilometers_per_second" : "7.3304653176",
          "kilometers_per_hour" : "26389.6751434416",
          "miles_per_hour" : "16397.5178689901"
        },
        "miss_distance" : {
          "astronomical" : "0.0592191409",
          "lunar" : "23.0362453461",
          "kilometers" : "8859057",
          "miles" : "5504763"
        },
        "orbiting_body" : "Earth"
      } ],
      "orbital_data" : {
        "orbit_id" : "13",
        "orbit_determination_date" : "2017-04-06 08:58:08",
        "orbit_uncertainty" : "7",
        "minimum_orbit_intersection" : ".0619617",
        "jupiter_tisserand_invariant" : "2.962",
        "epoch_osculation" : "2458000.5",
        "eccentricity" : ".6319692017416474",
        "semi_major_axis" : "2.875628351568747",
        "inclination" : ".3462519298836765",
        "ascending_node_longitude" : "22.4377017429192",
        "orbital_period" : "1781.137970341173",
        "perihelion_distance" : "1.058319797722197",
        "perihelion_argument" : "162.6324530977245",
        "aphelion_distance" : "4.692936905415297",
        "perihelion_time" : "2458838.860195191915",
        "mean_anomaly" : "190.5523349146959",
        "mean_motion" : ".2021179751342018",
        "equinox" : "J2000"
      }
    }, {
      "links" : {
        "self" : "https://api.nasa.gov/neo/rest/v1/neo/3516632?api_key=t0TVs3DtDT2H8Oy2Zy8m2eVrNsAVKAexjcZXUckd"
      },
      "neo_reference_id" : "3516632",
      "name" : "(2010 GR75)",
      "nasa_jpl_url" : "http://ssd.jpl.nasa.gov/sbdb.cgi?sstr=3516632",
      "absolute_magnitude_h" : 19.6,
      "estimated_diameter" : {
        "kilometers" : {
          "estimated_diameter_min" : 0.3195618867,
          "estimated_diameter_max" : 0.7145621017
        },
        "meters" : {
          "estimated_diameter_min" : 319.5618867213,
          "estimated_diameter_max" : 714.5621017269
        },
        "miles" : {
          "estimated_diameter_min" : 0.1985664891,
          "estimated_diameter_max" : 0.4440081677
        },
        "feet" : {
          "estimated_diameter_min" : 1048.4314204307,
          "estimated_diameter_max" : 2344.3639258298
        }
      },
      "is_potentially_hazardous_asteroid" : false,
      "close_approach_data" : [ {
        "close_approach_date" : "2010-03-22",
        "epoch_date_close_approach" : 1269241200000,
        "relative_velocity" : {
          "kilometers_per_second" : "16.9982290777",
          "kilometers_per_hour" : "61193.6246797261",
          "miles_per_hour" : "38023.3386239109"
        },
        "miss_distance" : {
          "astronomical" : "0.3142118759",
          "lunar" : "122.2284164429",
          "kilometers" : "47005428",
          "miles" : "29207818"
        },
        "orbiting_body" : "Earth"
      } ],
      "orbital_data" : {
        "orbit_id" : "34",
        "orbit_determination_date" : "2017-04-06 08:57:45",
        "orbit_uncertainty" : "0",
        "minimum_orbit_intersection" : ".29851",
        "jupiter_tisserand_invariant" : "3.861",
        "epoch_osculation" : "2458000.5",
        "eccentricity" : ".6356926317915497",
        "semi_major_axis" : "1.726451138587897",
        "inclination" : "17.779433098277",
        "ascending_node_longitude" : "118.5497929625537",
        "orbital_period" : "828.5712582687721",
        "perihelion_distance" : ".6289588706394392",
        "perihelion_argument" : "359.9298219435544",
        "aphelion_distance" : "2.823943406536354",
        "perihelion_time" : "2457731.005516566575",
        "mean_anomaly" : "117.0907306617706",
        "mean_motion" : ".4344828479232901",
        "equinox" : "J2000"
      }
    } ]
  }
}